{
    "links": {
        "self": "http://www.neowsapp.com/rest/v1/neo/3836176?api_key=iIulBulltgU6a56xZRHN4H3l9WmuAYTsLGpBGhQ2"
    },
    "id": "3836176",
    "neo_reference_id": "3836176",
    "name": "(2018 VY6)",
    "designation": "2018 VY6",
    "nasa_jpl_url": "http://ssd.jpl.nasa.gov/sbdb.cgi?sstr=3836176",
    "absolute_magnitude_h": 25.3,
    "estimated_diameter": {
        "kilometers": {
            "estimated_diameter_min": 0.0231502122,
            "estimated_diameter_max": 0.0517654482
        },
        "meters": {
            "estimated_diameter_min": 23.150212221,
            "estimated_diameter_max": 51.7654482198
        },
        "miles": {
            "estimated_diameter_min": 0.0143848705,
            "estimated_diameter_max": 0.0321655483
        },
        "feet": {
            "estimated_diameter_min": 75.9521422633,
            "estimated_diameter_max": 169.8341531374
        }
    },
    "is_potentially_hazardous_asteroid": false,
    "close_approach_data": [
        {
            "close_approach_date": "2018-11-18",
            "close_approach_date_full": "2018-Nov-18 06:38",
            "epoch_date_close_approach": 1542523080000,
            "relative_velocity": {
                "kilometers_per_second": "7.3384129524",
                "kilometers_per_hour": "26418.2866286154",
                "miles_per_hour": "16415.2959332083"
            },
            "miss_distance": {
                "astronomical": "0.065750256",
                "lunar": "25.576849584",
                "kilometers": "9836098.24955472",
                "miles": "6111868.041186336"
            },
            "orbiting_body": "Earth"
        },
        {
            "close_approach_date": "2021-11-11",
            "close_approach_date_full": "2021-Nov-11 18:25",
            "epoch_date_close_approach": 1636655100000,
            "relative_velocity": {
                "kilometers_per_second": "10.6242335995",
                "kilometers_per_hour": "38247.2409583498",
                "miles_per_hour": "23765.3481388146"
            },
            "miss_distance": {
                "astronomical": "0.1904057474",
                "lunar": "74.0678357386",
                "kilometers": "28484294.246798038",
                "miles": "17699319.7165994044"
            },
            "orbiting_body": "Earth"
        }
    ],
    "orbital_data": {
        "orbit_id": "2",
        "orbit_determination_date": "2018-11-15 06:44:57",
        "first_observation_date": "2018-11-09",
        "last_observation_date": "2018-11-15",
        "data_arc_in_days": 6,
        "observations_used": 23,
        "orbit_uncertainty": "8",
        "minimum_orbit_intersection": ".0656101",
        "jupiter_tisserand_invariant": "4.948",
        "epoch_osculation": "2458432.5",
        "eccentricity": ".2253674273395009",
        "semi_major_axis": "1.302691190338027",
        "inclination": "11.94585862355855",
        "ascending_node_longitude": "47.73458122676008",
        "orbital_period": "543.0760382077751",
        "perihelion_distance": "1.009107028153714",
        "perihelion_argument": "44.67780515307376",
        "aphelion_distance": "1.596275352522341",
        "perihelion_time": "2458475.408554799827",
        "mean_anomaly": "331.556322427859",
        "mean_motion": ".6628905985026499",
        "equinox": "J2000",
        "orbit_class": {
            "orbit_class_type": "APO",
            "orbit_class_description": "Near-Earth asteroid orbits which cross the Earth’s orbit similar to that of 1862 Apollo",
            "orbit_class_range": "a (semi-major axis) > 1.0 AU; q (perihelion) < 1.017 AU"
        }
    },
    "is_sentry_object": false
}